<?xml version="1.0" encoding="UTF-8"?>
<ndm xmlns:xsi="http://www.w3.org/2001/XMLSchema-instance" xsi:noNamespaceSchemaLocation="https://sanaregistry.org/r/ndmxml_unqualified/ndmxml-2.0.0-master-2.0.xsd">
<omm id="CCSDS_OMM_VERS" version="2.0">
<header><CREATION_DATE/><ORIGINATOR/></header><body><segment><metadata><OBJECT_NAME>IRIDIUM 116</OBJECT_NAME><OBJECT_ID>2017-083C</OBJECT_ID><CENTER_NAME>EARTH</CENTER_NAME><REF_FRAME>TEME</REF_FRAME><TIME_SYSTEM>UTC</TIME_SYSTEM><MEAN_ELEMENT_THEORY>SGP4</MEAN_ELEMENT_THEORY></metadata><data><meanElements><EPOCH>2024-10-18T07:10:03.282240</EPOCH><MEAN_MOTION>14.34219508</MEAN_MOTION><ECCENTRICITY>.0002291</ECCENTRICITY><INCLINATION>86.4016</INCLINATION><RA_OF_ASC_NODE>215.6012</RA_OF_ASC_NODE><ARG_OF_PERICENTER>81.2616</ARG_OF_PERICENTER><MEAN_ANOMALY>278.8839</MEAN_ANOMALY></meanElements><tleParameters><EPHEMERIS_TYPE>0</EPHEMERIS_TYPE><CLASSIFICATION_TYPE>U</CLASSIFICATION_TYPE><NORAD_CAT_ID>43072</NORAD_CAT_ID><ELEMENT_SET_NO>999</ELEMENT_SET_NO><REV_AT_EPOCH>35718</REV_AT_EPOCH><BSTAR>.42413E-3</BSTAR><MEAN_MOTION_DOT>.1208E-4</MEAN_MOTION_DOT><MEAN_MOTION_DDOT>0</MEAN_MOTION_DDOT></tleParameters></data></segment></body></omm>
<omm id="CCSDS_OMM_VERS" version="2.0">
<header><CREATION_DATE/><ORIGINATOR/></header><body><segment><metadata><OBJECT_NAME>IRIDIUM 130</OBJECT_NAME><OBJECT_ID>2017-083D</OBJECT_ID><CENTER_NAME>EARTH</CENTER_NAME><REF_FRAME>TEME</REF_FRAME><TIME_SYSTEM>UTC</TIME_SYSTEM><MEAN_ELEMENT_THEORY>SGP4</MEAN_ELEMENT_THEORY></metadata><data><meanElements><EPOCH>2024-10-18T08:04:51.528000</EPOCH><MEAN_MOTION>14.34222336</MEAN_MOTION><ECCENTRICITY>.0002432</ECCENTRICITY><INCLINATION>86.4026</INCLINATION><RA_OF_ASC_NODE>215.8012</RA_OF_ASC_NODE><ARG_OF_PERICENTER>87.4595</ARG_OF_PERICENTER><MEAN_ANOMALY>272.6879</MEAN_ANOMALY></meanElements><tleParameters><EPHEMERIS_TYPE>0</EPHEMERIS_TYPE><CLASSIFICATION_TYPE>U</CLASSIFICATION_TYPE><NORAD_CAT_ID>43073</NORAD_CAT_ID><ELEMENT_SET_NO>999</ELEMENT_SET_NO><REV_AT_EPOCH>35713</REV_AT_EPOCH><BSTAR>.50012E-3</BSTAR><MEAN_MOTION_DOT>.1421E-4</MEAN_MOTION_DOT><MEAN_MOTION_DDOT>0</MEAN_MOTION_DDOT></tleParameters></data></segment></body></omm>
<omm id="CCSDS_OMM_VERS" version="2.0">
<header><CREATION_DATE/><ORIGINATOR/></header><body><segment><metadata><OBJECT_NAME>IRIDIUM 151</OBJECT_NAME><OBJECT_ID>2017-083E</OBJECT_ID><CENTER_NAME>EARTH</CENTER_NAME><REF_FRAME>TEME</REF_FRAME><TIME_SYSTEM>UTC</TIME_SYSTEM><MEAN_ELEMENT_THEORY>SGP4</MEAN_ELEMENT_THEORY></metadata><data><meanElements><EPOCH>2024-10-18T07:28:18.969888</EPOCH><MEAN_MOTION>14.34222158</MEAN_MOTION><ECCENTRICITY>.0002101</ECCENTRICITY><INCLINATION>86.4018</INCLINATION><RA_OF_ASC_NODE>215.6398</RA_OF_ASC_NODE><ARG_OF_PERICENTER>77.0787</ARG_OF_PERICENTER><MEAN_ANOMALY>283.0644</MEAN_ANOMALY></meanElements><tleParameters><EPHEMERIS_TYPE>0</EPHEMERIS_TYPE><CLASSIFICATION_TYPE>U</CLASSIFICATION_TYPE><NORAD_CAT_ID>43074</NORAD_CAT_ID><ELEMENT_SET_NO>999</ELEMENT_SET_NO><REV_AT_EPOCH>35715</REV_AT_EPOCH><BSTAR>.38534E-3</BSTAR><MEAN_MOTION_DOT>.1099E-4</MEAN_MOTION_DOT><MEAN_MOTION_DDOT>0</MEAN_MOTION_DDOT></tleParameters></data></segment></body></omm>
<omm id="CCSDS_OMM_VERS" version="2.0">
<header><CREATION_DATE/><ORIGINATOR/></header><body><segment><metadata><OBJECT_NAME>IRIDIUM 134</OBJECT_NAME><OBJECT_ID>2017-083F</OBJECT_ID><CENTER_NAME>EARTH</CENTER_NAME><REF_FRAME>TEME</REF_FRAME><TIME_SYSTEM>UTC</TIME_SYSTEM><MEAN_ELEMENT_THEORY>SGP4</MEAN_ELEMENT_THEORY></metadata><data><meanElements><EPOCH>2024-10-18T08:23:08.630016</EPOCH><MEAN_MOTION>14.34216197</MEAN_MOTION><ECCENTRICITY>.0002389</ECCENTRICITY><INCLINATION>86.4017</INCLINATION><RA_OF_ASC_NODE>215.6237</RA_OF_ASC_NODE><ARG_OF_PERICENTER>82.8680</ARG_OF_PERICENTER><MEAN_ANOMALY>277.2787</MEAN_ANOMALY></meanElements><tleParameters><EPHEMERIS_TYPE>0</EPHEMERIS_TYPE><CLASSIFICATION_TYPE>U</CLASSIFICATION_TYPE><NORAD_CAT_ID>43075</NORAD_CAT_ID><ELEMENT_SET_NO>999</ELEMENT_SET_NO><REV_AT_EPOCH>35712</REV_AT_EPOCH><BSTAR>.52722E-3</BSTAR><MEAN_MOTION_DOT>.1496E-4</MEAN_MOTION_DOT><MEAN_MOTION_DDOT>0</MEAN_MOTION_DDOT></tleParameters></data></segment></body></omm>
<omm id="CCSDS_OMM_VERS" version="2.0">
<header><CREATION_DATE/><ORIGINATOR/></header><body><segment><metadata><OBJECT_NAME>IRIDIUM 137</OBJECT_NAME><OBJECT_ID>2017-083G</OBJECT_ID><CENTER_NAME>EARTH</CENTER_NAME><REF_FRAME>TEME</REF_FRAME><TIME_SYSTEM>UTC</TIME_SYSTEM><MEAN_ELEMENT_THEORY>SGP4</MEAN_ELEMENT_THEORY></metadata><data><meanElements><EPOCH>2024-10-18T07:00:54.633600</EPOCH><MEAN_MOTION>14.34217210</MEAN_MOTION><ECCENTRICITY>.000251</ECCENTRICITY><INCLINATION>86.4015</INCLINATION><RA_OF_ASC_NODE>215.7288</RA_OF_ASC_NODE><ARG_OF_PERICENTER>71.0481</ARG_OF_PERICENTER><MEAN_ANOMALY>289.0987</MEAN_ANOMALY></meanElements><tleParameters><EPHEMERIS_TYPE>0</EPHEMERIS_TYPE><CLASSIFICATION_TYPE>U</CLASSIFICATION_TYPE><NORAD_CAT_ID>43076</NORAD_CAT_ID><ELEMENT_SET_NO>999</ELEMENT_SET_NO><REV_AT_EPOCH>35718</REV_AT_EPOCH><BSTAR>.16967E-3</BSTAR><MEAN_MOTION_DOT>.495E-5</MEAN_MOTION_DOT><MEAN_MOTION_DDOT>0</MEAN_MOTION_DDOT></tleParameters></data></segment></body></omm>
<omm id="CCSDS_OMM_VERS" version="2.0">
<header><CREATION_DATE/><ORIGINATOR/></header><body><segment><metadata><OBJECT_NAME>IRIDIUM 141</OBJECT_NAME><OBJECT_ID>2017-083H</OBJECT_ID><CENTER_NAME>EARTH</CENTER_NAME><REF_FRAME>TEME</REF_FRAME><TIME_SYSTEM>UTC</TIME_SYSTEM><MEAN_ELEMENT_THEORY>SGP4</MEAN_ELEMENT_THEORY></metadata><data><meanElements><EPOCH>2024-10-18T06:51:47.395008</EPOCH><MEAN_MOTION>14.34224727</MEAN_MOTION><ECCENTRICITY>.0002236</ECCENTRICITY><INCLINATION>86.4015</INCLINATION><RA_OF_ASC_NODE>215.5959</RA_OF_ASC_NODE><ARG_OF_PERICENTER>84.1006</ARG_OF_PERICENTER><MEAN_ANOMALY>276.0444</MEAN_ANOMALY></meanElements><tleParameters><EPHEMERIS_TYPE>0</EPHEMERIS_TYPE><CLASSIFICATION_TYPE>U</CLASSIFICATION_TYPE><NORAD_CAT_ID>43077</NORAD_CAT_ID><ELEMENT_SET_NO>999</ELEMENT_SET_NO><REV_AT_EPOCH>35718</REV_AT_EPOCH><BSTAR>.48359E-3</BSTAR><MEAN_MOTION_DOT>.1374E-4</MEAN_MOTION_DOT><MEAN_MOTION_DDOT>0</MEAN_MOTION_DDOT></tleParameters></data></segment></body></omm>
<omm id="CCSDS_OMM_VERS" version="2.0">
<header><CREATION_DATE/><ORIGINATOR/></header><body><segment><metadata><OBJECT_NAME>IRIDIUM 153</OBJECT_NAME><OBJECT_ID>2017-083J</OBJECT_ID><CENTER_NAME>EARTH</CENTER_NAME><REF_FRAME>TEME</REF_FRAME><TIME_SYSTEM>UTC</TIME_SYSTEM><MEAN_ELEMENT_THEORY>SGP4</MEAN_ELEMENT_THEORY></metadata><data><meanElements><EPOCH>2024-10-18T10:44:19.213440</EPOCH><MEAN_MOTION>14.34224152</MEAN_MOTION><ECCENTRICITY>.0001579</ECCENTRICITY><INCLINATION>86.4038</INCLINATION><RA_OF_ASC_NODE>184.0580</RA_OF_ASC_NODE><ARG_OF_PERICENTER>91.5218</ARG_OF_PERICENTER><MEAN_ANOMALY>268.6158</MEAN_ANOMALY></meanElements><tleParameters><EPHEMERIS_TYPE>0</EPHEMERIS_TYPE><CLASSIFICATION_TYPE>U</CLASSIFICATION_TYPE><NORAD_CAT_ID>43078</NORAD_CAT_ID><ELEMENT_SET_NO>999</ELEMENT_SET_NO><REV_AT_EPOCH>35831</REV_AT_EPOCH><BSTAR>.34689E-3</BSTAR><MEAN_MOTION_DOT>.991E-5</MEAN_MOTION_DOT><MEAN_MOTION_DDOT>0</MEAN_MOTION_DDOT></tleParameters></data></segment></body></omm>
<omm id="CCSDS_OMM_VERS" version="2.0">
<header><CREATION_DATE/><ORIGINATOR/></header><body><segment><metadata><OBJECT_NAME>IRIDIUM 131</OBJECT_NAME><OBJECT_ID>2017-083K</OBJECT_ID><CENTER_NAME>EARTH</CENTER_NAME><REF_FRAME>TEME</REF_FRAME><TIME_SYSTEM>UTC</TIME_SYSTEM><MEAN_ELEMENT_THEORY>SGP4</MEAN_ELEMENT_THEORY></metadata><data><meanElements><EPOCH>2024-10-18T08:14:00.030624</EPOCH><MEAN_MOTION>14.34220859</MEAN_MOTION><ECCENTRICITY>.0002146</ECCENTRICITY><INCLINATION>86.4022</INCLINATION><RA_OF_ASC_NODE>215.7171</RA_OF_ASC_NODE><ARG_OF_PERICENTER>82.1759</ARG_OF_PERICENTER><MEAN_ANOMALY>277.9681</MEAN_ANOMALY></meanElements><tleParameters><EPHEMERIS_TYPE>0</EPHEMERIS_TYPE><CLASSIFICATION_TYPE>U</CLASSIFICATION_TYPE><NORAD_CAT_ID>43079</NORAD_CAT_ID><ELEMENT_SET_NO>999</ELEMENT_SET_NO><REV_AT_EPOCH>35712</REV_AT_EPOCH><BSTAR>.51485E-3</BSTAR><MEAN_MOTION_DOT>.1462E-4</MEAN_MOTION_DOT><MEAN_MOTION_DDOT>0</MEAN_MOTION_DDOT></tleParameters></data></segment></body></omm>

</ndm>
