IRIDIUM 116             
1 43072U 17083C   24292.29864910  .00001208  00000+0  42413-3 0  9990
2 43072  86.4016 215.6012 0002291  81.2616 278.8839 14.34219508357184
IRIDIUM 130             
1 43073U 17083D   24292.33670750  .00001421  00000+0  50012-3 0  9994
2 43073  86.4026 215.8012 0002432  87.4595 272.6879 14.34222336357133
IRIDIUM 151             
1 43074U 17083E   24292.31133067  .00001099  00000+0  38534-3 0  9994
2 43074  86.4018 215.6398 0002101  77.0787 283.0644 14.34222158357151
IRIDIUM 134             
1 43075U 17083F   24292.34940544  .00001496  00000+0  52722-3 0  9990
2 43075  86.4017 215.6237 0002389  82.8680 277.2787 14.34216197357123
IRIDIUM 137             
1 43076U 17083G   24292.29229900  .00000495  00000+0  16967-3 0  9990
2 43076  86.4015 215.7288 0002510  71.0481 289.0987 14.34217210357180
IRIDIUM 141             
1 43077U 17083H   24292.28596522  .00001374  00000+0  48359-3 0  9994
2 43077  86.4015 215.5959 0002236  84.1006 276.0444 14.34224727357182
IRIDIUM 153             
1 43078U 17083J   24292.44744460  .00000991  00000+0  34689-3 0  9994
2 43078  86.4038 184.0580 0001579  91.5218 268.6158 14.34224152358311
IRIDIUM 131             
1 43079U 17083K   24292.34305591  .00001462  00000+0  51485-3 0  9999
2 43079  86.4022 215.7171 0002146  82.1759 277.9681 14.34220859357122
